O3B MPOWER F1           
1 54755U 22174A   24025.52396353 -.00000026  00000+0  00000+0 0  9998
2 54755   0.0598  11.5774 0006240 304.6776 230.1969  5.00118499 21651
